[
    {
        "Altitude(m)": 705677.2000645576,
        "Argument of Periapsis(deg)": 0.0,
        "Eccentricity": 0.0,
        "Inclination(deg)": 45.0,
        "Latitude(deg)": -11.613348977671633,
        "Longitude(deg)": -118.17446769685492,
        "Mean Anomaly(deg)": 196.36360000000002,
        "RAAN(deg)": 150.0,
        "Satellite Name": "Constellation 1 672",
        "Satellite Number": 672,
        "Semi-Major Axis(m)": 7083131.272910544,
        "Time(s)": 0
    },
    {
        "Altitude(m)": 705687.8645518178,
        "Argument of Periapsis(deg)": 5.994800624540561e-05,
        "Eccentricity": 0.0,
        "Inclination(deg)": 45.0,
        "Latitude(deg)": -11.65560926508127,
        "Longitude(deg)": -118.13393842513393,
        "Mean Anomaly(deg)": 196.42430114024987,
        "RAAN(deg)": 149.99994341083445,
        "Satellite Name": "Constellation 1 672",
        "Satellite Number": 672,
        "Semi-Major Axis(m)": 7083131.272910544,
        "Time(s)": 1
    },
    {
        "Altitude(m)": 705698.5446092103,
        "Argument of Periapsis(deg)": 0.00011989601249081122,
        "Eccentricity": 0.0,
        "Inclination(deg)": 45.0,
        "Latitude(deg)": -11.697862412043037,
        "Longitude(deg)": -118.09339576158987,
        "Mean Anomaly(deg)": 196.4850022804998,
        "RAAN(deg)": 149.99988682166887,
        "Satellite Name": "Constellation 1 672",
        "Satellite Number": 672,
        "Semi-Major Axis(m)": 7083131.272910544,
        "Time(s)": 2
    },
    {
        "Altitude(m)": 705709.2402065932,
        "Argument of Periapsis(deg)": 0.00017984401873621686,
        "Eccentricity": 0.0,
        "Inclination(deg)": 45.0,
        "Latitude(deg)": -11.740108390264366,
        "Longitude(deg)": -118.0528396542376,
        "Mean Anomaly(deg)": 196.54570342074967,
        "RAAN(deg)": 149.9998302325033,
        "Satellite Name": "Constellation 1 672",
        "Satellite Number": 672,
        "Semi-Major Axis(m)": 7083131.272910544,
        "Time(s)": 3
    },
    {
        "Altitude(m)": 705719.9513137649,
        "Argument of Periapsis(deg)": 0.00023979202498162244,
        "Eccentricity": 0.0,
        "Inclination(deg)": 45.0,
        "Latitude(deg)": -11.782347171427409,
        "Longitude(deg)": -118.01227005106593,
        "Mean Anomaly(deg)": 196.60640456099958,
        "RAAN(deg)": 149.9997736433377,
        "Satellite Name": "Constellation 1 672",
        "Satellite Number": 672,
        "Semi-Major Axis(m)": 7083131.272910544,
        "Time(s)": 4
    },
    {
        "Altitude(m)": 705730.6779004259,
        "Argument of Periapsis(deg)": 0.00029974003122702807,
        "Eccentricity": 0.0,
        "Inclination(deg)": 45.0,
        "Latitude(deg)": -11.824578727188506,
        "Longitude(deg)": -117.97168690003801,
        "Mean Anomaly(deg)": 196.66710570124943,
        "RAAN(deg)": 149.99971705417215,
        "Satellite Name": "Constellation 1 672",
        "Satellite Number": 672,
        "Semi-Major Axis(m)": 7083131.272910544,
        "Time(s)": 5
    },
    {
        "Altitude(m)": 705741.4199362184,
        "Argument of Periapsis(deg)": 0.00035968803747243373,
        "Eccentricity": 0.0,
        "Inclination(deg)": 45.0,
        "Latitude(deg)": -11.866803029178161,
        "Longitude(deg)": -117.93109014909109,
        "Mean Anomaly(deg)": 196.72780684149936,
        "RAAN(deg)": 149.9996604650066,
        "Satellite Name": "Constellation 1 672",
        "Satellite Number": 672,
        "Semi-Major Axis(m)": 7083131.272910544,
        "Time(s)": 6
    },
    {
        "Altitude(m)": 705752.1773907043,
        "Argument of Periapsis(deg)": 0.00041963604371783933,
        "Eccentricity": 0.0,
        "Inclination(deg)": 45.0,
        "Latitude(deg)": -11.909020049000741,
        "Longitude(deg)": -117.89047991423374,
        "Mean Anomaly(deg)": 196.78850798174926,
        "RAAN(deg)": 149.99960387584102,
        "Satellite Name": "Constellation 1 672",
        "Satellite Number": 672,
        "Semi-Major Axis(m)": 7083131.272910544,
        "Time(s)": 7
    },
    {
        "Altitude(m)": 705762.9502333698,
        "Argument of Periapsis(deg)": 0.0004795840499632449,
        "Eccentricity": 0.0,
        "Inclination(deg)": 45.0,
        "Latitude(deg)": -11.95122975823516,
        "Longitude(deg)": -117.84985580715706,
        "Mean Anomaly(deg)": 196.8492091219992,
        "RAAN(deg)": 149.99954728667547,
        "Satellite Name": "Constellation 1 672",
        "Satellite Number": 672,
        "Semi-Major Axis(m)": 7083131.272910544,
        "Time(s)": 8
    },
    {
        "Altitude(m)": 705773.7384336265,
        "Argument of Periapsis(deg)": 0.0005395320562086505,
        "Eccentricity": 0.0,
        "Inclination(deg)": 45.0,
        "Latitude(deg)": -11.993432128433609,
        "Longitude(deg)": -117.80921794381761,
        "Mean Anomaly(deg)": 196.909910262249,
        "RAAN(deg)": 149.99949069750988,
        "Satellite Name": "Constellation 1 672",
        "Satellite Number": 672,
        "Semi-Major Axis(m)": 7083131.272910544,
        "Time(s)": 9
    },
    {
        "Altitude(m)": 705784.5419608088,
        "Argument of Periapsis(deg)": 0.0005994800624540561,
        "Eccentricity": 0.0,
        "Inclination(deg)": 45.0,
        "Latitude(deg)": -12.035627131122366,
        "Longitude(deg)": -117.76856627204852,
        "Mean Anomaly(deg)": 196.97061140249897,
        "RAAN(deg)": 149.9994341083443,
        "Satellite Name": "Constellation 1 672",
        "Satellite Number": 672,
        "Semi-Major Axis(m)": 7083131.272910544,
        "Time(s)": 10
    },
    {
        "Altitude(m)": 705795.360784181,
        "Argument of Periapsis(deg)": 0.0006594280686994618,
        "Eccentricity": 0.0,
        "Inclination(deg)": 45.0,
        "Latitude(deg)": -12.077814737801218,
        "Longitude(deg)": -117.72790073965683,
        "Mean Anomaly(deg)": 197.03131254274888,
        "RAAN(deg)": 149.99937751917875,
        "Satellite Name": "Constellation 1 672",
        "Satellite Number": 672,
        "Semi-Major Axis(m)": 7083131.272910544,
        "Time(s)": 11
    },
    {
        "Altitude(m)": 705806.1948729302,
        "Argument of Periapsis(deg)": 0.0007193760749448675,
        "Eccentricity": 0.0,
        "Inclination(deg)": 45.0,
        "Latitude(deg)": -12.119994919943581,
        "Longitude(deg)": -117.6872212944234,
        "Mean Anomaly(deg)": 197.09201368299873,
        "RAAN(deg)": 149.99932093001317,
        "Satellite Name": "Constellation 1 672",
        "Satellite Number": 672,
        "Semi-Major Axis(m)": 7083131.272910544,
        "Time(s)": 12
    },
    {
        "Altitude(m)": 705817.0441961634,
        "Argument of Periapsis(deg)": 0.000779324081190273,
        "Eccentricity": 0.0,
        "Inclination(deg)": 45.0,
        "Latitude(deg)": -12.16216764899639,
        "Longitude(deg)": -117.64652788410265,
        "Mean Anomaly(deg)": 197.15271482324874,
        "RAAN(deg)": 149.99926434084762,
        "Satellite Name": "Constellation 1 672",
        "Satellite Number": 672,
        "Semi-Major Axis(m)": 7083131.272910544,
        "Time(s)": 13
    },
    {
        "Altitude(m)": 705827.9087229308,
        "Argument of Periapsis(deg)": 0.0008392720874356787,
        "Eccentricity": 0.0,
        "Inclination(deg)": 45.0,
        "Latitude(deg)": -12.204332896379727,
        "Longitude(deg)": -117.6058204564228,
        "Mean Anomaly(deg)": 197.21341596349853,
        "RAAN(deg)": 149.99920775168204,
        "Satellite Name": "Constellation 1 672",
        "Satellite Number": 672,
        "Semi-Major Axis(m)": 7083131.272910544,
        "Time(s)": 14
    },
    {
        "Altitude(m)": 705838.7884221849,
        "Argument of Periapsis(deg)": 0.0008992200936810842,
        "Eccentricity": 0.0,
        "Inclination(deg)": 45.0,
        "Latitude(deg)": -12.24649063348705,
        "Longitude(deg)": -117.5650991271825,
        "Mean Anomaly(deg)": 197.27411710374847,
        "RAAN(deg)": 149.99915116251645,
        "Satellite Name": "Constellation 1 672",
        "Satellite Number": 672,
        "Semi-Major Axis(m)": 7083131.272910544,
        "Time(s)": 15
    },
    {
        "Altitude(m)": 705849.6832628178,
        "Argument of Periapsis(deg)": 0.0009591680999264898,
        "Eccentricity": 0.0,
        "Inclination(deg)": 45.0,
        "Latitude(deg)": -12.288640831685171,
        "Longitude(deg)": -117.52436350786287,
        "Mean Anomaly(deg)": 197.33481824399837,
        "RAAN(deg)": 149.9990945733509,
        "Satellite Name": "Constellation 1 672",
        "Satellite Number": 672,
        "Semi-Major Axis(m)": 7083131.272910544,
        "Time(s)": 16
    },
    {
        "Altitude(m)": 705860.5932136507,
        "Argument of Periapsis(deg)": 0.0010191161061718953,
        "Eccentricity": 0.0,
        "Inclination(deg)": 45.0,
        "Latitude(deg)": -12.330783462313649,
        "Longitude(deg)": -117.48361371420957,
        "Mean Anomaly(deg)": 197.3955193842483,
        "RAAN(deg)": 149.99903798418535,
        "Satellite Name": "Constellation 1 672",
        "Satellite Number": 672,
        "Semi-Major Axis(m)": 7083131.272910544,
        "Time(s)": 17
    },
    {
        "Altitude(m)": 705871.5182434166,
        "Argument of Periapsis(deg)": 0.001079064112417301,
        "Eccentricity": 0.0,
        "Inclination(deg)": 45.0,
        "Latitude(deg)": -12.372918496685006,
        "Longitude(deg)": -117.44284969384475,
        "Mean Anomaly(deg)": 197.45622052449818,
        "RAAN(deg)": 149.99898139501974,
        "Satellite Name": "Constellation 1 672",
        "Satellite Number": 672,
        "Semi-Major Axis(m)": 7083131.272910544,
        "Time(s)": 18
    }
]